#dP2018  9  1  0  0  0.00000000      96 __u+U ITR00 FIT  IAC
## 2016 518400.00000000   900.00000000 58362 0.0000000000000
+   87   C02C03C04C05C06C07C08C09C10C11C12C13C14E01E02E03E04
+        E05E07E08E09E11E12E14E18E19E24E26E30G01G02G03G04G05
+        G06G07G08G09G10G11G12G13G14G15G16G17G18G19G20G21G22
+        G23G24G25G26G27G28G29G30G31G32J01J02J03R01R02R03R04
+        R05R07R08R09R10R11R13R14R15R16R17R18R19R20R21R22R23
+        R24R26  0  0  0  0  0  0  0  0  0  0  0  0  0  0  0
++         0  0  0  0  0  0  0  0  0  0  0  0  0  0  0  0  0
++         0  0  0  0  0  0  0  0  0  0  0  0  0  0  0  0  0
++         0  0  0  0  0  0  0  0  0  0  0  0  0  0  0  0  0
++         0  0  0  0  0  0  0  0  0  0  0  0  0  0  0  0  0
++         0  0  0  0  0  0  0  0  0  0  0  0  0  0  0  0  0
++         0  0  0  0  0  0  0  0  0  0  0  0  0  0  0  0  0
%c M  cc GPS ccc cccc cccc cccc cccc ccccc ccccc ccccc ccccc
%c cc cc ccc ccc cccc cccc cccc cccc ccccc ccccc ccccc ccccc
%f  0.0000000  0.000000000  0.00000000000  0.000000000000000
%f  0.0000000  0.000000000  0.00000000000  0.000000000000000
%i    0    0    0    0      0      0      0      0         0
%i    0    0    0    0      0      0      0      0         0
/*                                                          
/*   RSA / INFORMATION & ANALYSIS CENTER (IAC) OF MCC       
/*   ULTRA-RAPID DETERMINATION                              
/* PCV:IGS14_2000 OL/AL:FES2004  NONE     YN ORB:CoN CLK:CoN
*  2018 09 01 12 30  0.00000000
PC02   4354.198627  41929.939811    248.339755    710.820701
PC03 -14719.903586  39491.875308   -977.025367    213.253377
PC04 -39629.995931  14373.827947   -742.633295   -348.884909
PC05  21839.146650  36067.777553    369.258520   -415.004290
PC06 -12497.962276  21645.370488  34220.428221    265.200159
PC07 -23790.827313  33153.657739 -11440.141693     -1.893996
PC08  -8432.057127  34229.478497 -22868.690685    508.095282
PC09   2857.715134  26737.327217  32734.990817     76.359948
PC10 -11949.971709  33907.770862 -22195.654126    -37.713029
PC11  20900.328103   9010.411596  16143.331555   -660.970178
PC12  16909.548704  22088.734861  -1333.047845    586.929302
PC13    603.033542  40781.551929 -10164.979566   -255.695931
PC14  26690.212576   1294.350535   8187.691523    311.242610
PE01 -11228.242586  24517.917600 -12216.848354   -425.393351
PE02  11177.883204 -24510.817480  12265.829377     25.781345
PE03   3527.224686 -16776.174208 -24125.600166    -72.197909
PE04  17890.455570  16233.667770  17112.715846   -108.295454
PE05  23011.820974  -7487.596205 -17039.868318    201.373572
PE07 -28962.944405  -6136.139320     26.875931    -30.430607
PE08 -18098.307928 -15952.477951 -17152.290187   6511.653781
PE09  28997.779696   5901.504368     23.216980   6689.352577
PE11  18261.113748   9299.731825  21353.090953   4448.461520
PE12  13030.076299  25886.282170   6052.656500   4956.440239
PE14  10164.748393  24906.904688 -16004.714972   6526.334628
PE18 -17882.500004 -18163.459422   3218.254371   5939.414735
PE19  -5635.562994  16150.620003  24163.812545    -12.656475
PE24  20366.067490  -1539.058064 -21430.838092   6516.312789
PE26 -12863.702857  12150.629420 -23731.316344   5527.409628
PE30  -6474.864021 -16256.149395  23870.710500   5548.624491
PG01  13194.688991 -14853.444718  17309.666220    -83.002195
PG02 -14385.058922  -7670.937805 -20446.858699     10.994171
PG03  22340.771010 -13682.557191  -4179.205669    130.137662
PG04   9452.731456  12031.800767 -21988.305007     94.305695
PG05 -22664.664964    -54.176168 -14132.623498     -2.482071
PG06  -6968.998993 -22165.679129 -12820.155737    369.209796
PG07   5836.182639 -25192.920476  -4611.191945    131.735110
PG08  21797.644940   2193.477230  15169.484043   -113.647350
PG09   5116.004214 -14911.975940 -21404.097502    508.649628
PG10   2990.338446  15229.126215  21578.781709    184.324024
PG11  13173.124093 -10130.047558  20187.947074   -721.055077
PG12 -24744.640747   9358.683951    512.619402    310.023889
PG13 -22184.301440 -10797.781568   9745.567309    -89.987945
PG14  18201.917030  19001.872930   4559.042326    -97.470927
PG15 -20269.999538   2924.581738  16887.426510   -347.058282
PG16  21696.492056   2880.670584 -15496.789259     11.014884
PG17 -11448.877178 -20179.518093  13430.101017    -60.809010
PG18  15035.223599  -5366.277618  20726.945181     52.285072
PG19 -18356.505906 -18712.622811   3491.531278   -406.652768
PG20  -6635.038511  19060.714050  17095.108365    515.107203
PG21  -1216.309092  26523.740410   -473.074238   -343.782052
PG22  24377.605650  -9710.627085   4249.259734   -506.475155
PG23  14933.431578  -7728.601554 -20348.209330   -211.727389
PG24 -14511.451673  10710.791244  19280.990997    -54.775285
PG25 -16595.363928  16798.642830 -12103.132480   -640.430912
PG26  13945.998549   9374.739940 -20606.231822    -33.710752
PG27  23389.962366  11531.937706   5640.668683    349.030287
PG28    946.641694 -15838.357392  21932.207589    741.839008
PG29  -6759.519049  13290.009493 -22005.732808    384.931465
PG30   -782.684885 -25813.745787   5818.649693     29.958209
PG31   7910.749115  20461.636515 -14632.931897     96.613557
PG32  13059.980237  19572.886604  12452.678392   -436.102564
PJ01 -26874.097937  29521.111905  18806.747567   -120.907695
PJ02 -31132.913174  25710.684173  16470.915660     -5.298459
PJ03 -25231.148705  17504.105966 -24265.973224      0.135889
PR01 -23194.452149  -4771.503813  -9500.817965     31.363597
PR02 -22826.399644   4408.493182  10478.362305    327.573600
PR03  -8182.556379  10264.584213  21902.557478    142.078138
PR04  11684.678044   9958.128088  20391.883673    274.592775
PR05  24051.209290   3999.696438   7541.210265      9.593397
PR07   7804.346485 -10293.219299 -21966.994918    -46.100862
PR08 -10985.971815 -10084.809411 -20641.306213     21.516864
PR09  16361.504672 -15560.800896 -11778.878071     26.165802
PR10  11371.665613 -22283.873238   4717.517515     30.844433
PR11   -876.826819 -16388.023951  19527.598706    -39.498981
PR13 -16027.157295  15653.953970  12199.126806    -14.213543
PR14 -11293.827841  22420.358652  -4570.594590     30.606258
PR15  -2535.566812  18847.307206 -16937.441735    -15.609135
PR16  11682.145947   1522.247404 -22651.018519    100.663509
PR17    262.598144  17999.613021 -18051.009953    160.727625
PR18  10733.167007  22945.949694  -3220.174678     25.273454
PR19  14929.363196  15554.994045  13620.049370    -58.828967
PR20  10503.236177  -2381.837974  23125.462298   -350.721207
PR21   -646.369309 -18278.543513  17789.468434     -1.054709
PR22 -11619.504826 -22614.374146    990.850466    -60.811564
PR23 -15051.775864 -11837.567524 -16867.923267    175.546932
PR24  -9912.532313   3798.640836 -23224.952146   -170.829223
PR26  11061.521715  -1415.483548  22944.549312     44.634643
EOF
